{
    "links": {
        "self": "http://www.neowsapp.com/rest/v1/neo/3377888?api_key=iIulBulltgU6a56xZRHN4H3l9WmuAYTsLGpBGhQ2"
    },
    "id": "3377888",
    "neo_reference_id": "3377888",
    "name": "(2007 KO4)",
    "designation": "2007 KO4",
    "nasa_jpl_url": "http://ssd.jpl.nasa.gov/sbdb.cgi?sstr=3377888",
    "absolute_magnitude_h": 23.2,
    "estimated_diameter": {
        "kilometers": {
            "estimated_diameter_min": 0.0608912622,
            "estimated_diameter_max": 0.1361570015
        },
        "meters": {
            "estimated_diameter_min": 60.8912622106,
            "estimated_diameter_max": 136.1570015386
        },
        "miles": {
            "estimated_diameter_min": 0.0378360645,
            "estimated_diameter_max": 0.0846040122
        },
        "feet": {
            "estimated_diameter_min": 199.7744887109,
            "estimated_diameter_max": 446.7093369279
        }
    },
    "is_potentially_hazardous_asteroid": false,
    "close_approach_data": [
        {
            "close_approach_date": "2007-05-25",
            "close_approach_date_full": "2007-May-25 19:53",
            "epoch_date_close_approach": 1180122780000,
            "relative_velocity": {
                "kilometers_per_second": "12.6225719458",
                "kilometers_per_hour": "45441.2590049941",
                "miles_per_hour": "28235.4311856309"
            },
            "miss_distance": {
                "astronomical": "0.1851860167",
                "lunar": "72.0373604963",
                "kilometers": "27703433.652104429",
                "miles": "17214115.4422779602"
            },
            "orbiting_body": "Earth"
        },
        {
            "close_approach_date": "2007-11-19",
            "close_approach_date_full": "2007-Nov-19 23:30",
            "epoch_date_close_approach": 1195515000000,
            "relative_velocity": {
                "kilometers_per_second": "13.4081934672",
                "kilometers_per_hour": "48269.4964819607",
                "miles_per_hour": "29992.787966805"
            },
            "miss_distance": {
                "astronomical": "0.1001482522",
                "lunar": "38.9576701058",
                "kilometers": "14981965.213342814",
                "miles": "9309361.5027422732"
            },
            "orbiting_body": "Earth"
        },
        {
            "close_approach_date": "2051-05-25",
            "close_approach_date_full": "2051-May-25 23:16",
            "epoch_date_close_approach": 2568669360000,
            "relative_velocity": {
                "kilometers_per_second": "12.6233934439",
                "kilometers_per_hour": "45444.2163978838",
                "miles_per_hour": "28237.2687945628"
            },
            "miss_distance": {
                "astronomical": "0.1837626568",
                "lunar": "71.4836734952",
                "kilometers": "27490502.042821016",
                "miles": "17081805.8755453808"
            },
            "orbiting_body": "Earth"
        },
        {
            "close_approach_date": "2051-11-19",
            "close_approach_date_full": "2051-Nov-19 22:55",
            "epoch_date_close_approach": 2584047300000,
            "relative_velocity": {
                "kilometers_per_second": "13.3946676781",
                "kilometers_per_hour": "48220.8036411568",
                "miles_per_hour": "29962.5321291399"
            },
            "miss_distance": {
                "astronomical": "0.1035173237",
                "lunar": "40.2682389193",
                "kilometers": "15485971.133620519",
                "miles": "9622536.2594964022"
            },
            "orbiting_body": "Earth"
        },
        {
            "close_approach_date": "2190-11-10",
            "close_approach_date_full": "2190-Nov-10 22:14",
            "epoch_date_close_approach": 6969708840000,
            "relative_velocity": {
                "kilometers_per_second": "15.1021336266",
                "kilometers_per_hour": "54367.6810557542",
                "miles_per_hour": "33781.962709338"
            },
            "miss_distance": {
                "astronomical": "0.3954604064",
                "lunar": "153.8340980896",
                "kilometers": "59160034.466774368",
                "miles": "36760340.8179995584"
            },
            "orbiting_body": "Earth"
        }
    ],
    "orbital_data": {
        "orbit_id": "6",
        "orbit_determination_date": "2017-04-06 09:06:24",
        "first_observation_date": "2007-05-22",
        "last_observation_date": "2007-05-25",
        "data_arc_in_days": 3,
        "observations_used": 14,
        "orbit_uncertainty": "9",
        "minimum_orbit_intersection": ".00759093",
        "jupiter_tisserand_invariant": "5.539",
        "epoch_osculation": "2454244.5",
        "eccentricity": ".1617335701297557",
        "semi_major_axis": "1.10323604707038",
        "inclination": "25.16311544191246",
        "ascending_node_longitude": "61.16455314429612",
        "orbital_period": "423.2540204650057",
        "perihelion_distance": ".9248057424818481",
        "perihelion_argument": "299.3290948930922",
        "aphelion_distance": "1.281666351658912",
        "perihelion_time": "2454369.222301613789",
        "mean_anomaly": "253.9170653792376",
        "mean_motion": ".8505530546514076",
        "equinox": "J2000",
        "orbit_class": {
            "orbit_class_type": "APO",
            "orbit_class_description": "Near-Earth asteroid orbits which cross the Earth’s orbit similar to that of 1862 Apollo",
            "orbit_class_range": "a (semi-major axis) > 1.0 AU; q (perihelion) < 1.017 AU"
        }
    },
    "is_sentry_object": false
}